{
  "type": "FeatureCollection",
  "features": [
    {
      "type": "Feature",
      "properties": {
        "norad_id": 41772,
        "name": "SKYSAT-C5",
        "group": "resource",
        "lat": 35.57164412509089,
        "lon": 27.722172239384417,
        "alt_km": 461.1657835159949,
        "timestamp": "2025-12-15T04:01:20.100183+00:00",
        "meta_object_name": "SKYSAT-C5",
        "meta_object_id": "2016-058C",
        "meta_epoch": "2025-12-14T02:49:32.636640",
        "meta_mean_motion": 15.34499873,
        "meta_eccentricity": 0.0001679,
        "meta_inclination": 97.0774,
        "meta_ra_of_asc_node": 31.8129,
        "meta_arg_of_pericenter": 214.96,
        "meta_mean_anomaly": 145.1534,
        "meta_ephemeris_type": 0,
        "meta_classification_type": "U",
        "meta_norad_cat_id": 41772,
        "meta_element_set_no": 999,
        "meta_rev_at_epoch": 51537,
        "meta_bstar": 0.00033072121,
        "meta_mean_motion_dot": 0.00010981,
        "meta_mean_motion_ddot": 0,
        "tle_line1": "1 41772U 16058C   25348.11773885  .00010981  00000+0  33072-3 0  9999",
        "tle_line2": "2 41772  97.0774  31.8129 0001679 214.9600 145.1534 15.34499873515373"
      },
      "geometry": {
        "type": "Point",
        "coordinates": [
          27.722172239384417,
          35.57164412509089
        ]
      }
    },
    {
      "type": "Feature",
      "properties": {
        "norad_id": 41773,
        "name": "SKYSAT-C2",
        "group": "resource",
        "lat": 70.29477875255495,
        "lon": -6.583457994723665,
        "alt_km": 445.1989309308856,
        "timestamp": "2025-12-15T04:01:20.100193+00:00",
        "meta_object_name": "SKYSAT-C2",
        "meta_object_id": "2016-058D",
        "meta_epoch": "2025-12-14T01:09:19.522368",
        "meta_mean_motion": 15.37310352,
        "meta_eccentricity": 0.00041138,
        "meta_inclination": 97.0369,
        "meta_ra_of_asc_node": 12.5196,
        "meta_arg_of_pericenter": 31.301,
        "meta_mean_anomaly": 328.848,
        "meta_ephemeris_type": 0,
        "meta_classification_type": "U",
        "meta_norad_cat_id": 41773,
        "meta_element_set_no": 999,
        "meta_rev_at_epoch": 51656,
        "meta_bstar": 0.00035412269,
        "meta_mean_motion_dot": 0.00012879,
        "meta_mean_motion_ddot": 0,
        "tle_line1": "1 41773U 16058D   25348.04814262  .00012879  00000+0  35412-3 0  9995",
        "tle_line2": "2 41773  97.0369  12.5196 0004113  31.3010 328.8480 15.37310352516565"
      },
      "geometry": {
        "type": "Point",
        "coordinates": [
          -6.583457994723665,
          70.29477875255495
        ]
      }
    },
    {
      "type": "Feature",
      "properties": {
        "norad_id": 41774,
        "name": "SKYSAT-C3",
        "group": "resource",
        "lat": -37.31683290800913,
        "lon": 28.121398531549485,
        "alt_km": 440.24164502398526,
        "timestamp": "2025-12-15T04:01:20.100203+00:00",
        "meta_object_name": "SKYSAT-C3",
        "meta_object_id": "2016-058E",
        "meta_epoch": "2025-12-14T01:45:02.943072",
        "meta_mean_motion": 15.44456794,
        "meta_eccentricity": 0.00017069,
        "meta_inclination": 96.9307,
        "meta_ra_of_asc_node": 21.757,
        "meta_arg_of_pericenter": 107.5774,
        "meta_mean_anomaly": 252.5662,
        "meta_ephemeris_type": 0,
        "meta_classification_type": "U",
        "meta_norad_cat_id": 41774,
        "meta_element_set_no": 999,
        "meta_rev_at_epoch": 51746,
        "meta_bstar": 0.000438274,
        "meta_mean_motion_dot": 0.0002023,
        "meta_mean_motion_ddot": 0,
        "tle_line1": "1 41774U 16058E   25348.07295073  .00020230  00000+0  43827-3 0  9991",
        "tle_line2": "2 41774  96.9307  21.7570 0001706 107.5774 252.5662 15.44456794517466"
      },
      "geometry": {
        "type": "Point",
        "coordinates": [
          28.121398531549485,
          -37.31683290800913
        ]
      }
    },
    {
      "type": "Feature",
      "properties": {
        "norad_id": 41785,
        "name": "ALSAT 1B",
        "group": "resource",
        "lat": -82.19861285502166,
        "lon": 94.35016060130195,
        "alt_km": 669.2985155438028,
        "timestamp": "2025-12-15T04:01:20.100214+00:00",
        "meta_object_name": "ALSAT 1B",
        "meta_object_id": "2016-059C",
        "meta_epoch": "2025-12-14T07:13:33.749184",
        "meta_mean_motion": 14.7207937,
        "meta_eccentricity": 0.00107361,
        "meta_inclination": 97.7819,
        "meta_ra_of_asc_node": 0.0238,
        "meta_arg_of_pericenter": 98.6398,
        "meta_mean_anomaly": 261.6027,
        "meta_ephemeris_type": 0,
        "meta_classification_type": "U",
        "meta_norad_cat_id": 41785,
        "meta_element_set_no": 999,
        "meta_rev_at_epoch": 49337,
        "meta_bstar": 0.00017303747,
        "meta_mean_motion_dot": 1.042e-05,
        "meta_mean_motion_ddot": 0,
        "tle_line1": "1 41785U 16059C   25348.30108506  .00001042  00000+0  17304-3 0  9995",
        "tle_line2": "2 41785  97.7819   0.0238 0010736  98.6398 261.6027 14.72079370493371"
      },
      "geometry": {
        "type": "Point",
        "coordinates": [
          94.35016060130195,
          -82.19861285502166
        ]
      }
    },
    {
      "type": "Feature",
      "properties": {
        "norad_id": 41787,
        "name": "PATHFINDER 1",
        "group": "resource",
        "lat": -53.02245586701684,
        "lon": 2.337031646394339,
        "alt_km": 689.4196802810757,
        "timestamp": "2025-12-15T04:01:20.100225+00:00",
        "meta_object_name": "PATHFINDER 1",
        "meta_object_id": "2016-059E",
        "meta_epoch": "2025-12-14T06:59:27.713472",
        "meta_mean_motion": 14.67324498,
        "meta_eccentricity": 0.00300134,
        "meta_inclination": 97.8139,
        "meta_ra_of_asc_node": 350.9929,
        "meta_arg_of_pericenter": 76.5228,
        "meta_mean_anomaly": 283.9319,
        "meta_ephemeris_type": 0,
        "meta_classification_type": "U",
        "meta_norad_cat_id": 41787,
        "meta_element_set_no": 999,
        "meta_rev_at_epoch": 49259,
        "meta_bstar": 0.00020454178,
        "meta_mean_motion_dot": 1.116e-05,
        "meta_mean_motion_ddot": 0,
        "tle_line1": "1 41787U 16059E   25348.29129298  .00001116  00000+0  20454-3 0  9998",
        "tle_line2": "2 41787  97.8139 350.9929 0030013  76.5228 283.9319 14.67324498492592"
      },
      "geometry": {
        "type": "Point",
        "coordinates": [
          2.337031646394339,
          -53.02245586701684
        ]
      }
    },
    {
      "type": "Feature",
      "properties": {
        "norad_id": 41790,
        "name": "SCATSAT 1",
        "group": "resource",
        "lat": 39.46673051121236,
        "lon": 39.09476307994905,
        "alt_km": 622.7206615736641,
        "timestamp": "2025-12-15T04:01:20.100235+00:00",
        "meta_object_name": "SCATSAT 1",
        "meta_object_id": "2016-059H",
        "meta_epoch": "2025-12-14T06:43:58.554048",
        "meta_mean_motion": 14.7894434,
        "meta_eccentricity": 0.00563344,
        "meta_inclination": 98.1466,
        "meta_ra_of_asc_node": 44.9701,
        "meta_arg_of_pericenter": 123.1232,
        "meta_mean_anomaly": 237.5402,
        "meta_ephemeris_type": 0,
        "meta_classification_type": "U",
        "meta_norad_cat_id": 41790,
        "meta_element_set_no": 999,
        "meta_rev_at_epoch": 7425,
        "meta_bstar": 0.00028030917,
        "meta_mean_motion_dot": 2.067e-05,
        "meta_mean_motion_ddot": 0,
        "tle_line1": "1 41790U 16059H   25348.28053882  .00002067  00000+0  28031-3 0  9991",
        "tle_line2": "2 41790  98.1466  44.9701 0056334 123.1232 237.5402 14.78944340 74252"
      },
      "geometry": {
        "type": "Point",
        "coordinates": [
          39.09476307994905,
          39.46673051121236
        ]
      }
    },
    {
      "type": "Feature",
      "properties": {
        "norad_id": 41875,
        "name": "GOKTURK 1A",
        "group": "resource",
        "lat": -15.750643792499151,
        "lon": -116.18542206674329,
        "alt_km": 689.0298636807547,
        "timestamp": "2025-12-15T04:01:20.100245+00:00",
        "meta_object_name": "GOKTURK 1A",
        "meta_object_id": "2016-073A",
        "meta_epoch": "2025-12-14T06:45:10.538208",
        "meta_mean_motion": 14.62783041,
        "meta_eccentricity": 0.00012569,
        "meta_inclination": 98.1425,
        "meta_ra_of_asc_node": 240.6262,
        "meta_arg_of_pericenter": 79.6148,
        "meta_mean_anomaly": 280.5196,
        "meta_ephemeris_type": 0,
        "meta_classification_type": "U",
        "meta_norad_cat_id": 41875,
        "meta_element_set_no": 999,
        "meta_rev_at_epoch": 48179,
        "meta_bstar": 0.00018109044,
        "meta_mean_motion_dot": 8.77e-06,
        "meta_mean_motion_ddot": 0,
        "tle_line1": "1 41875U 16073A   25348.28137197  .00000877  00000+0  18109-3 0  9995",
        "tle_line2": "2 41875  98.1425 240.6262 0001256  79.6148 280.5196 14.62783041481793"
      },
      "geometry": {
        "type": "Point",
        "coordinates": [
          -116.18542206674329,
          -15.750643792499151
        ]
      }
    }
  ]
}